*******************************************************************************
Ephemeris / WWW_USER Fri Apr 12 18:02:31 2019 Pasadena, USA      / Horizons    
*******************************************************************************
Target body name: Mercury (199)                   {source: DE431mx}
Center body name: Earth (399)                     {source: DE431mx}
Center-site name: (user defined site below)
*******************************************************************************
Start time      : A.D. 1900-Jan-01 00:00:00.0000 UT      
Stop  time      : A.D. 2100-Jan-01 00:00:00.0000 UT      
Step-size       : 14400 minutes
*******************************************************************************
Target pole/equ : IAU_MERCURY                     {West-longitude positive}
Target radii    : 2439.7 x 2439.7 x 2439.7 km     {Equator, meridian, pole}    
Center geodetic : 279.000000,29.0000000,0.0100000 {E-lon(deg),Lat(deg),Alt(km)}
Center cylindric: 279.000000,5582.84695,3073.9060 {E-lon(deg),Dxy(km),Dz(km)}
Center pole/equ : High-precision EOP model        {East-longitude positive}
Center radii    : 6378.1 x 6378.1 x 6356.8 km     {Equator, meridian, pole}    
Target primary  : Sun
Vis. interferer : MOON (R_eq= 1737.400) km        {source: DE431mx}
Rel. light bend : Sun, EARTH                      {source: DE431mx}
Rel. lght bnd GM: 1.3271E+11, 3.9860E+05 km^3/s^2                              
Atmos refraction: YES (Earth refraction model)
RA format       : DEG
Time format     : CAL 
EOP file        : eop.190411.p190703                                           
EOP coverage    : DATA-BASED 1962-JAN-20 TO 2019-APR-11. PREDICTS-> 2019-JUL-02
Units conversion: 1 au= 149597870.700 km, c= 299792.458 km/s, 1 day= 86400.0 s 
Table cut-offs 1: Elevation (-90.0deg=NO ),Airmass (>38.000=NO), Daylight (NO )
Table cut-offs 2: Solar elongation (  0.0,180.0=NO ),Local Hour Angle( 0.0=NO )
Table cut-offs 3: RA/DEC angular rate (     0.0=NO )                           
********************************************************************************
 Date__(UT)__HR:MN     R.A._(ICRF/J2K)_DEC R.A._(r-appar)_DEC. Azi_(r-appr)_Elev
********************************************************************************
$$SOE
 2097-Sep-04 00:00 C   149.54018  13.81532 151.40149  13.70874 292.8065 -11.3491
 2097-Sep-14 00:00 Nm  167.46123   7.30718 169.27927   7.10984 282.8745  -8.1963
 2097-Sep-24 00:00 N   184.19751  -0.54517 186.00794  -0.76972 272.5469  -6.1662
 2097-Oct-04 00:00 A   199.42800  -8.09232 201.27412  -8.29183 263.3150  -5.0645
 2097-Oct-14 00:00 Am  213.82348 -14.69277 215.73657 -14.82826 255.3896  -4.2478
 2097-Oct-24 00:00 A   227.73302 -19.97025 229.72582 -20.01160 248.9268  -3.3426
 2097-Nov-03 00:00     240.58431 -23.49595 242.64586 -23.42975 244.5362  -2.5981
 2097-Nov-13 00:00  m  249.22644 -24.56230 251.32219 -24.42671 244.2209  -4.0329
 2097-Nov-23 00:00     245.35447 -21.70233 247.42531 -21.64111 252.7158 -13.9108
 2097-Dec-03 00:00     234.32899 -16.84565 236.32892 -16.89391 266.3013 -29.9026
 2097-Dec-13 00:00  m  237.75315 -17.71064 239.77360 -17.74052 268.3187 -35.8455
 2097-Dec-23 00:00     249.98296 -20.99399 252.07393 -20.93980 263.6123 -34.9333
 2098-Jan-02 00:00 A   265.29952 -23.49921 267.44269 -23.30933 258.7813 -31.0250
 2098-Jan-12 00:00 Am  281.97609 -24.18728 284.11845 -23.82751 255.6335 -25.3995
 2098-Jan-22 00:00 A   299.32861 -22.64145 301.40920 -22.10367 254.4108 -18.4336
 2098-Feb-01 00:00 A   316.91189 -18.64300 318.88936 -17.94733 255.0219 -10.1760
 2098-Feb-11 00:00 Nm  334.17994 -12.20013 336.05484 -11.39221 257.4227  -0.8380
 2098-Feb-21 00:00 N   349.31349  -4.25562 350.67884  -3.65947 261.8031   7.0992
 2098-Mar-03 00:00 N   356.67852   1.49335 358.02940   2.09182 268.0961   7.7401
 2098-Mar-13 00:00 Nm  351.89672   0.38941 353.71154   1.24414 274.2438  -5.0598
 2098-Mar-23 00:00 C   345.35333  -4.43627 347.17709  -3.58761 278.2509 -21.6929
 2098-Apr-02 00:00 C   346.97673  -6.31932 348.80226  -5.46143 281.0256 -29.7305
 2098-Apr-12 00:00 Cm  355.06568  -4.51110 356.87315  -3.62882 283.8994 -30.3100
 2098-Apr-22 00:00 C     6.83220  -0.00034   8.62627   0.89443 287.0747 -26.2798
 2098-May-02 00:00 *m   21.31354   6.44607  23.12983   7.31453 290.0711 -18.8608
 2098-May-12 00:00 *m   38.87759  14.04816  40.77830  14.82298 292.1403  -8.3382
 2098-May-22 00:00 *    60.10608  21.19850  61.72330  21.56021 292.3952   4.1554
 2098-Jun-01 00:00 *m   82.71381  25.14917  84.27981  25.23742 290.2832  16.1933
 2098-Jun-11 00:00 *m  102.06170  24.97738 103.60263  24.87308 286.2788  23.9083
 2098-Jun-21 00:00 *   115.84069  22.21853 117.32916  21.98983 281.8440  26.0914
 2098-Jul-01 00:00 *m  123.09648  18.71450 124.54440  18.42964 279.3540  22.3949
 2098-Jul-11 00:00 *m  122.79671  16.21717 124.25232  15.95096 281.4303  12.5871
 2098-Jul-21 00:00 *   116.61745  16.12035 118.59292  16.20050 288.8296  -0.3878
 2098-Jul-31 00:00 *m  113.02963  18.00306 115.00336  18.15938 297.4600 -10.1400
 2098-Aug-10 00:00 *m  119.44647  19.55121 121.41859  19.66851 300.6559 -11.8819
 2098-Aug-20 00:00 C   135.46653  17.97568 137.40778  17.94702 295.8081  -8.1565
 2098-Aug-30 00:00 Cm  154.87629  12.32072 156.75160  12.15477 285.9696  -3.5037
 2098-Sep-09 00:00 Cm  172.55042   4.67649 174.38033   4.44927 275.4570  -0.6610
 2098-Sep-19 00:00 N   187.97717  -3.08585 189.69134  -3.37686 265.9689   0.3048
 2098-Sep-29 00:00 Nm  201.93416 -10.15754 203.66811 -10.41990 257.8262   0.4222
 2098-Oct-09 00:00 Am  214.83524 -16.09389 216.67590 -16.26678 251.2301   0.1552
 2098-Oct-19 00:00 A   226.09832 -20.38798 228.10112 -20.43395 246.8857  -0.6861
 2098-Oct-29 00:00 Am  232.62214 -22.00884 234.66807 -22.01874 247.0631  -4.1331
 2098-Nov-08 00:00  m  227.38258 -18.56186 229.39468 -18.64668 256.7752 -15.1353
 2098-Nov-18 00:00     218.21826 -12.85992 220.15480 -13.00336 270.8945 -29.2544
 2098-Nov-28 00:00  m  223.37551 -14.15014 225.33650 -14.26720 271.8873 -33.8935
 2098-Dec-08 00:00  m  236.30137 -18.47908 238.34588 -18.52694 265.7459 -32.8909
 2098-Dec-18 00:00     251.78050 -22.28532 253.90721 -22.21356 259.3845 -29.3491
 2098-Dec-28 00:00  m  268.48280 -24.42912 270.65137 -24.19404 254.6670 -24.2237
 2099-Jan-07 00:00 Am  285.93418 -24.42794 288.08100 -24.00612 251.9089 -17.8055
 2099-Jan-17 00:00 A   303.69353 -21.98430 305.75733 -21.38064 251.0929 -10.1708
 2099-Jan-27 00:00 Am  321.01823 -16.99921 322.97102 -16.24932 252.2692  -1.6028
 2099-Feb-06 00:00 Am  335.73850 -10.20397 337.17806  -9.62233 255.8558   5.3999
 2099-Feb-16 00:00 N   341.47404  -5.17188 342.91302  -4.55956 262.3098   4.4005
 2099-Feb-26 00:00 Nm  334.01631  -6.80657 335.88076  -6.00351 269.2043 -11.0194
 2099-Mar-08 00:00 N   327.88696 -10.90482 329.79050 -10.13938 273.1828 -26.9006
 2099-Mar-18 00:00 N   331.55557 -11.93855 333.46104 -11.15583 275.3748 -32.7641
 2099-Mar-28 00:00 Cm  341.23902  -9.84087 343.10978  -9.00912 277.7312 -31.9350
 2099-Apr-07 00:00 C   353.93502  -5.29894 355.76570  -4.42369 280.7382 -27.2528
 2099-Apr-17 00:00 C     8.68932   1.21746  10.50767   2.10273 284.0603 -19.6922
 2099-Apr-27 00:00 Cm   25.76309   9.21633  27.62765  10.05240 287.0744  -9.3582
 2099-May-07 00:00 *    45.77603  17.53880  47.38991  18.03836 289.0061   2.9797
 2099-May-17 00:00 *    67.21202  23.59952  68.76371  23.83468 289.1629  15.1901
 2099-May-27 00:00 *m   85.72268  25.62809  87.29568  25.67927 287.5729  23.1389
 2099-Jun-06 00:00 *    98.30003  24.54498  99.85438  24.47416 285.3393  24.9504
 2099-Jun-16 00:00 *   103.37901  22.00174 104.90942  21.88845 284.6462  19.8759
 2099-Jun-26 00:00 *m  100.63897  19.52833 102.20155  19.47267 287.7389   8.2590
 2099-Jul-06 00:00 *    94.78391  18.55014  96.81196  18.85012 294.4643  -4.4950
 2099-Jul-16 00:00 *    94.38632  19.62244  96.40063  19.96638 300.9795 -11.8071
 2099-Jul-26 00:00 *m  103.34481  21.38662 105.37394  21.65164 302.8581 -11.4386
 2099-Aug-05 00:00 *   120.80110  21.11710 122.82534  21.19577 298.2802  -5.9867
 2099-Aug-15 00:00 *   141.72653  16.82753 143.56232  16.65112 288.9442   0.3078
 2099-Aug-25 00:00 Cm  160.60328   9.81204 162.07719   9.38232 278.4666   4.0899
 2099-Sep-04 00:00 C   176.48822   2.13340 177.89469   1.65498 268.8049   5.5676
 2099-Sep-14 00:00 N   190.20554  -5.15413 191.62457  -5.61988 260.5302   5.3662
 2099-Sep-24 00:00 Nm  202.22317 -11.47629 203.70994 -11.88866 253.9852   4.1005
 2099-Oct-04 00:00 A   211.91883 -16.19150 213.57071 -16.49199 250.0275   1.7403
 2099-Oct-14 00:00 A   216.26969 -17.92006 218.24507 -18.04678 251.1759  -3.3178
 2099-Oct-24 00:00 Am  209.96186 -13.78400 211.90149 -13.97115 262.2065 -15.1828
 2099-Nov-03 00:00     202.86764  -7.88429 204.74755  -8.08438 276.0540 -27.3292
 2099-Nov-13 00:00     209.62100  -9.70382 211.52461  -9.88045 275.8923 -30.8586
 2099-Nov-23 00:00  m  223.15786 -14.98951 225.14421 -15.11743 268.5587 -29.9077
 2099-Dec-03 00:00     238.65599 -19.99968 240.73983 -20.03058 260.9211 -26.9155
 2099-Dec-13 00:00     255.13608 -23.53704 257.29625 -23.42207 254.8003 -22.5186
 2099-Dec-23 00:00  m  272.38483 -25.08889 274.56895 -24.79197 250.5607 -16.8818
